COSMOS 2433 (720)       
1 32275U 07052A   23295.36615009 -.00000048  00000+0  00000+0 0  9995
2 32275  66.0087 348.3386 0005109 239.2098 120.8069  2.13103988124414
COSMOS 2432 (719)       
1 32276U 07052B   23295.54703916 -.00000048  00000+0  00000+0 0  9991
2 32276  66.0230 348.4422 0009869 311.9300 133.7694  2.13103135124442
COSMOS 2434 (721)       
1 32393U 07065A   23295.27102802  .00000007  00000+0  00000+0 0  9996
2 32393  64.3319 224.6784 0001993  68.7634 109.6135  2.13103002123123
COSMOS 2436 (723)       
1 32395U 07065C   23295.49770587  .00000004  00000+0  00000+0 0  9990
2 32395  64.3405 224.7328 0016351 358.8494 128.8859  2.13102638123093
COSMOS 2456 (730)       
1 36111U 09070A   23294.80537626  .00000087  00000+0  00000+0 0  9998
2 36111  64.5112 104.1760 0001232 334.1722   5.4535  2.13099030107807
COSMOS 2457 (733)       
1 36112U 09070B   23295.56093679  .00000090  00000+0  00000+0 0  9992
2 36112  64.4957 104.0142 0006582 148.3843 182.0397  2.13101205107782
COSMOS 2460 (732)       
1 36402U 10007C   23295.10863189 -.00000046  00000+0  00000+0 0  9999
2 36402  65.8702 347.0544 0002182 238.0347  94.3491  2.13106161106077
COSMOS 2476 (744)       
1 37867U 11064A   23295.41921979  .00000092  00000+0  00000+0 0  9995
2 37867  64.7904 105.7003 0021481 230.0200 130.2430  2.13101619 93124
COSMOS 2477 (745)       
1 37868U 11064B   23295.40795785  .00000092  00000+0  00000+0 0  9999
2 37868  64.7977 105.7705 0018691 230.0321 299.4537  2.13101488 93116
COSMOS 2475 (743)       
1 37869U 11064C   23294.74739715  .00000088  00000+0  00000+0 0  9992
2 37869  64.8045 105.8058 0022589 248.5319  92.7267  2.13101781 93107
COSMOS 2485 (747)       
1 39155U 13019A   23294.89154955  .00000090  00000+0  00000+0 0  9990
2 39155  64.9501 106.2519 0022018 226.0421 133.8093  2.13101760 81629
COSMOS 2492 (754)       
1 39620U 14012A   23295.31634830 -.00000046  00000+0  00000+0 0  9996
2 39620  65.7536 346.6591 0013028 311.0051  48.9497  2.13103027 74598
COSMOS 2500 (755)       
1 40001U 14032A   23295.49899953 -.00000045  00000+0  00000+0 0  9990
2 40001  65.6916 346.4767 0008577 211.8477 148.1675  2.13105838 72815
COSMOS 2501 (702K)      
1 40315U 14075A   23295.28020369  .00000006  00000+0  00000+0 0  9995
2 40315  63.6348 223.9900 0019105 209.0201 150.8889  2.13101172 69204
COSMOS 2514 (751)       
1 41330U 16008A   23295.26167998 -.00000045  00000+0  00000+0 0  9993
2 41330  65.4885 346.0540 0012519 216.1530 143.8293  2.13102497 59976
COSMOS 2522 (752)       
1 42939U 17055A   23295.10322506  .00000009  00000+0  00000+0 0  9992
2 42939  64.0955 224.9496 0008082 242.0463 117.8864  2.13101945 47320
COSMOS 2527 (756)       
1 43508U 18053A   23295.06192292  .00000091  00000+0  00000+0 0  9997
2 43508  65.1114 106.3487 0007730 212.9338 147.0516  2.13102328 41623
COSMOS 2529 (757)       
1 43687U 18086A   23295.16123758  .00000008  00000+0  00000+0 0  9991
2 43687  64.3108 225.3960 0009768 264.4527  95.4497  2.13101961 38631
COSMOS 2534 (758)       
1 44299U 19030A   23295.10496321  .00000009  00000+0  00000+0 0  9995
2 44299  64.3836 225.3288 0012138 285.4191 165.5622  2.13101730 34276
COSMOS 2544 (759)       
1 44850U 19088A   23295.00570311  .00000091  00000+0  00000+0 0  9993
2 44850  65.0976 106.1925 0011279 247.5150 112.3988  2.13102079 30060
COSMOS 2545 (760)       
1 45358U 20018A   23295.20258308 -.00000047  00000+0  00000+0 0  9995
2 45358  64.8288 346.2620 0011530 243.9753 115.9725  2.13102468 28017
COSMOS 2547 (705K)      
1 46805U 20075A   23295.57672547  .00000003  00000+0  00000+0 0  9992
2 46805  64.6110 224.8822 0007760 243.3632 258.8111  2.13102931 23265
COSMOS 2557 (706K)      
1 52984U 22075A   23295.55419023 -.00000050  00000+0  00000+0 0  9998
2 52984  64.7468 348.4040 0013291 275.8930  84.0216  2.13102102 10079
COSMOS 2559 (707K)      
1 54031U 22130A   23294.55780943 -.00000050  00000+0  00000+0 0  9996
2 54031  64.7185 348.5646 0007878 225.9616 134.0399  2.13101354  8022
COSMOS 2564 (761)       
1 54377U 22161A   23295.21992238  .00000008  00000+0  00000+0 0  9991
2 54377  64.7521 224.9567 0009347 222.1976 137.7447  2.13102066  6987
COSMOS 2569 (703K)      
1 57517U 23114A   23294.30074813  .00000085  00000+0  00000+0 0  9993
2 57517  64.8205 105.4529 0008577 295.1308  64.8113  2.13103993  1592
